[{"OBJECT_NAME":"STARLINK-4676","OBJECT_ID":"2022-104L","EPOCH":"2026-03-09T17:21:41.748768","MEAN_MOTION":15.08834109,"ECCENTRICITY":0.00012692,"INCLINATION":53.2171,"RA_OF_ASC_NODE":243.7109,"ARG_OF_PERICENTER":96.3117,"MEAN_ANOMALY":263.802,"EPHEMERIS_TYPE":0,"CLASSIFICATION_TYPE":"U","NORAD_CAT_ID":53598,"ELEMENT_SET_NO":999,"REV_AT_EPOCH":19562,"BSTAR":1.301145e-5,"MEAN_MOTION_DOT":-8.1e-7,"MEAN_MOTION_DDOT":0},{"OBJECT_NAME":"CZ-6A DEB","OBJECT_ID":"2024-140AAU","EPOCH":"2026-03-09T16:48:50.985504","MEAN_MOTION":14.99127941,"ECCENTRICITY":0.00591225,"INCLINATION":89.196,"RA_OF_ASC_NODE":296.0099,"ARG_OF_PERICENTER":104.8686,"MEAN_ANOMALY":255.9106,"EPHEMERIS_TYPE":0,"CLASSIFICATION_TYPE":"U","NORAD_CAT_ID":61486,"ELEMENT_SET_NO":999,"REV_AT_EPOCH":8015,"BSTAR":0.0049724997,"MEAN_MOTION_DOT":0.00063139,"MEAN_MOTION_DDOT":0}]
